{
    "links": {
        "self": "http://www.neowsapp.com/rest/v1/neo/3394776?api_key=iIulBulltgU6a56xZRHN4H3l9WmuAYTsLGpBGhQ2"
    },
    "id": "3394776",
    "neo_reference_id": "3394776",
    "name": "(2007 VE191)",
    "designation": "2007 VE191",
    "nasa_jpl_url": "http://ssd.jpl.nasa.gov/sbdb.cgi?sstr=3394776",
    "absolute_magnitude_h": 23.6,
    "estimated_diameter": {
        "kilometers": {
            "estimated_diameter_min": 0.0506471459,
            "estimated_diameter_max": 0.1132504611
        },
        "meters": {
            "estimated_diameter_min": 50.6471458835,
            "estimated_diameter_max": 113.2504610618
        },
        "miles": {
            "estimated_diameter_min": 0.0314706677,
            "estimated_diameter_max": 0.0703705522
        },
        "feet": {
            "estimated_diameter_min": 166.1651821003,
            "estimated_diameter_max": 371.5566426699
        }
    },
    "is_potentially_hazardous_asteroid": false,
    "close_approach_data": [
        {
            "close_approach_date": "1929-02-21",
            "close_approach_date_full": "1929-Feb-21 06:19",
            "epoch_date_close_approach": -1289410860000,
            "relative_velocity": {
                "kilometers_per_second": "14.4614194092",
                "kilometers_per_hour": "52061.1098730444",
                "miles_per_hour": "32348.7490763925"
            },
            "miss_distance": {
                "astronomical": "0.2785692256",
                "lunar": "108.3634287584",
                "kilometers": "41673362.797309472",
                "miles": "25894626.8924438336"
            },
            "orbiting_body": "Earth"
        },
        {
            "close_approach_date": "2007-11-28",
            "close_approach_date_full": "2007-Nov-28 04:04",
            "epoch_date_close_approach": 1196222640000,
            "relative_velocity": {
                "kilometers_per_second": "16.4143808543",
                "kilometers_per_hour": "59091.7710755898",
                "miles_per_hour": "36717.3285330519"
            },
            "miss_distance": {
                "astronomical": "0.0127923001",
                "lunar": "4.9762047389",
                "kilometers": "1913700.847360787",
                "miles": "1189118.5663893806"
            },
            "orbiting_body": "Earth"
        }
    ],
    "orbital_data": {
        "orbit_id": "14",
        "orbit_determination_date": "2017-04-06 09:05:10",
        "first_observation_date": "2007-11-15",
        "last_observation_date": "2007-11-28",
        "data_arc_in_days": 13,
        "observations_used": 62,
        "orbit_uncertainty": "7",
        "minimum_orbit_intersection": ".000187467",
        "jupiter_tisserand_invariant": "3.663",
        "epoch_osculation": "2459000.5",
        "eccentricity": ".6285453662820256",
        "semi_major_axis": "1.909843603979785",
        "inclination": "5.38710884713629",
        "ascending_node_longitude": "244.2852563275771",
        "orbital_period": "964.0401768765729",
        "perihelion_distance": ".7094202563749273",
        "perihelion_argument": "254.0978374588797",
        "aphelion_distance": "3.110266951584643",
        "perihelion_time": "2459300.907834616574",
        "mean_anomaly": "247.8191769845577",
        "mean_motion": ".3734284199299415",
        "equinox": "J2000",
        "orbit_class": {
            "orbit_class_type": "APO",
            "orbit_class_description": "Near-Earth asteroid orbits which cross the Earth’s orbit similar to that of 1862 Apollo",
            "orbit_class_range": "a (semi-major axis) > 1.0 AU; q (perihelion) < 1.017 AU"
        }
    },
    "is_sentry_object": false
}